{
  "type": "FeatureCollection",
  "name": "balaghat_aoi",
  "crs": {
    "type": "name",
    "properties": {
      "name": "urn:ogc:def:crs:OGC:1.3:CRS84"
    }
  },
  "features": [
    {
      "type": "Feature",
      "properties": {
        "name": "Balaghat Manganese Belt AOI",
        "district": "Balaghat",
        "state": "Madhya Pradesh",
        "country": "India",
        "description": "Area of Interest for MOIL Manganese Exploration and Production Intelligence Platform"
      },
      "geometry": {
        "type": "Polygon",
        "coordinates": [
          [
            [79.50, 21.50],
            [80.60, 21.50],
            [80.60, 22.10],
            [79.50, 22.10],
            [79.50, 21.50]
          ]
        ]
      }
    }
  ]
}
